AOR-E (EGNOS/PRN 120)   
1 24307U 96053A   17288.29354913 -.00000148  00000-0  00000+0 0  9994
2 24307   2.8668  77.0803 0005207 142.7633 254.3665  1.00271837 77276
ARTEMIS (EGNOS/PRN 124) 
1 26863U 01029A   17288.68979351 -.00000384  00000-0  00000+0 0  9996
2 26863  12.8522  31.8283 0002402 230.7852 133.1897  1.00273204 60655
CRE (WAAS/PRN 138)      
1 28868U 05036A   17288.48799302 -.00000101  00000-0  00000-0 0  9997
2 28868   0.0161 304.5024 0000960 293.8362 214.2691  1.00274331 14762
CRW (WAAS/PRN 135)      
1 28884U 05041A   17288.65686858  .00000052  00000-0  00000+0 0  9994
2 28884   0.0465  88.8722 0001546 132.3164 266.6785  1.00272556 43878
IOR-W (EGNOS/PRN 126)   
1 28899U 05044A   17287.79415625 -.00000013  00000-0  00000+0 0  9997
2 28899   2.5963  13.4656 0002795 207.8476 152.0170  1.00271504 43749
MTSAT-2 (MSAS/PRN 137)  
1 28937U 06004A   17288.21646750 -.00000268  00000-0  00000-0 0  9993
2 28937   0.0754  81.7363 0003723 127.9919  37.1843  1.00274816 42728
AMR (WAAS/PRN 133)      
1 33278U 08039A   17288.34007444 -.00000164  00000-0  00000+0 0  9996
2 33278   3.0265   2.5771 0002919 205.1894 200.7704  1.00271860 33510
QZS-1 (QZSS/PRN 183)    
1 37158U 10045A   17287.98174362 -.00000182  00000-0  00000+0 0  9990
2 37158  40.9307 157.5901 0748096 270.0345  85.9651  1.00294555 25958
GSAT-8 (GAGAN/PRN 127)  
1 37605U 11022A   17288.89494351  .00000059  00000-0  00000+0 0  9999
2 37605   0.1042  94.7416 0006752 160.8332 146.2863  1.00272036 23493
LUCH 5A (SDCM/PRN 140)  
1 37951U 11074B   17288.49841228 -.00000070  00000-0  00000+0 0  9999
2 37951   1.6089 169.2056 0002991  69.0655 132.4638  1.00268314 21434
SES-5 (EGNOS/PRN 136)   
1 38652U 12036A   17288.28382771  .00000007  00000-0  00000-0 0  9997
2 38652   0.0486 265.0807 0001714 314.0268 272.0714  1.00272512 12757
GSAT-10 (GAGAN/PRN 128) 
1 38779U 12051B   17288.70164548 -.00000191  00000-0  00000+0 0  9995
2 38779   0.0604  94.4557 0000652 137.2865 128.2701  1.00269989 18548
LUCH 5B (SDCM/PRN 125)  
1 38977U 12061A   17288.14979921 -.00000153  00000-0  00000-0 0  9992
2 38977   3.7764  73.7146 0001787 127.1708 220.6974  1.00271726 18410
ASTRA 5B (EGNOS/PRN 123)
1 39617U 14011B   17288.54282012  .00000128  00000-0  00000-0 0  9994
2 39617   0.0433 337.0285 0003350 230.0961  44.0730  1.00273304 12920
LUCH 5V (SDCM/PRN 141)  
1 39727U 14023A   17288.64476639 -.00000300  00000-0  00000-0 0  9993
2 39727   2.4764 299.0203 0002421 313.2025  98.9991  1.00272974530772
GSAT-15 (GAGAN/PRN 139) 
1 41028U 15065A   17287.67526633 -.00000284  00000-0  00000-0 0  9990
2 41028   0.0534 110.1344 0001945 111.7094 138.1600  1.00270643  7082
QZS-2 (QZSS/PRN 184)    
1 42738U 17028A   17288.32857725 -.00000231  00000-0  00000+0 0  9993
2 42738  44.6013 287.9417 0737652 271.1512  80.3687  1.00259300  1396
